{
  "type": "FeatureCollection",
  "features": [
    {
      "type": "Feature",
      "properties": {
        "norad_id": 30454,
        "name": "FENGYUN 1C DEB",
        "group": "fengyun-1c-debris",
        "lat": 0.8294868083101473,
        "lon": 131.30489123102245,
        "alt_km": 741.7667248979415,
        "timestamp": "2025-12-06T09:34:17.190271+00:00",
        "meta_object_name": "FENGYUN 1C DEB",
        "meta_object_id": "1999-025AFR",
        "meta_epoch": "2025-12-05T16:36:22.332096",
        "meta_mean_motion": 14.15296986,
        "meta_eccentricity": 0.01713968,
        "meta_inclination": 98.1334,
        "meta_ra_of_asc_node": 310.541,
        "meta_arg_of_pericenter": 215.8829,
        "meta_mean_anomaly": 324.6825,
        "meta_ephemeris_type": 0,
        "meta_classification_type": "U",
        "meta_norad_cat_id": 30454,
        "meta_element_set_no": 999,
        "meta_rev_at_epoch": 95860,
        "meta_bstar": 0.0035079632,
        "meta_mean_motion_dot": 7.839e-05,
        "meta_mean_motion_ddot": 0,
        "tle_line1": "1 30454U 99025AFR 25339.69192514  .00007839  00000+0  35080-2 0  9994",
        "tle_line2": "2 30454  98.1334 310.5410 0171396 215.8829 324.6825 14.15296986958601"
      },
      "geometry": {
        "type": "Point",
        "coordinates": [
          131.30489123102245,
          0.8294868083101473
        ]
      }
    },
    {
      "type": "Feature",
      "properties": {
        "norad_id": 30462,
        "name": "FENGYUN 1C DEB",
        "group": "fengyun-1c-debris",
        "lat": 52.45309513919638,
        "lon": 160.4555206307193,
        "alt_km": 945.5641680676345,
        "timestamp": "2025-12-06T09:34:17.190282+00:00",
        "meta_object_name": "FENGYUN 1C DEB",
        "meta_object_id": "1999-025AFZ",
        "meta_epoch": "2025-12-05T22:50:27.000096",
        "meta_mean_motion": 14.06257042,
        "meta_eccentricity": 0.01387759,
        "meta_inclination": 98.8163,
        "meta_ra_of_asc_node": 328.3711,
        "meta_arg_of_pericenter": 269.419,
        "meta_mean_anomaly": 115.9148,
        "meta_ephemeris_type": 0,
        "meta_classification_type": "U",
        "meta_norad_cat_id": 30462,
        "meta_element_set_no": 999,
        "meta_rev_at_epoch": 96698,
        "meta_bstar": 0.00032279912,
        "meta_mean_motion_dot": 5.36e-06,
        "meta_mean_motion_ddot": 0,
        "tle_line1": "1 30462U 99025AFZ 25339.95170139  .00000536  00000+0  32280-3 0  9998",
        "tle_line2": "2 30462  98.8163 328.3711 0138775 269.4190 115.9148 14.06257042966987"
      },
      "geometry": {
        "type": "Point",
        "coordinates": [
          160.4555206307193,
          52.45309513919638
        ]
      }
    },
    {
      "type": "Feature",
      "properties": {
        "norad_id": 30464,
        "name": "FENGYUN 1C DEB",
        "group": "fengyun-1c-debris",
        "lat": 81.09292904653988,
        "lon": -52.300270495345636,
        "alt_km": 928.7283450430195,
        "timestamp": "2025-12-06T09:34:17.190293+00:00",
        "meta_object_name": "FENGYUN 1C DEB",
        "meta_object_id": "1999-025AGB",
        "meta_epoch": "2025-12-05T09:37:11.082144",
        "meta_mean_motion": 14.10241415,
        "meta_eccentricity": 0.01082817,
        "meta_inclination": 98.8383,
        "meta_ra_of_asc_node": 29.8303,
        "meta_arg_of_pericenter": 279.4949,
        "meta_mean_anomaly": 145.441,
        "meta_ephemeris_type": 0,
        "meta_classification_type": "U",
        "meta_norad_cat_id": 30464,
        "meta_element_set_no": 999,
        "meta_rev_at_epoch": 96960,
        "meta_bstar": 0.00014425965,
        "meta_mean_motion_dot": 2.25e-06,
        "meta_mean_motion_ddot": 0,
        "tle_line1": "1 30464U 99025AGB 25339.40082271  .00000225  00000+0  14426-3 0  9996",
        "tle_line2": "2 30464  98.8383  29.8303 0108281 279.4949 145.4410 14.10241415969609"
      },
      "geometry": {
        "type": "Point",
        "coordinates": [
          -52.300270495345636,
          81.09292904653988
        ]
      }
    },
    {
      "type": "Feature",
      "properties": {
        "norad_id": 30465,
        "name": "FENGYUN 1C DEB",
        "group": "fengyun-1c-debris",
        "lat": 61.61632277110255,
        "lon": -94.79671725202681,
        "alt_km": 768.0643019673917,
        "timestamp": "2025-12-06T09:34:17.190303+00:00",
        "meta_object_name": "FENGYUN 1C DEB",
        "meta_object_id": "1999-025AGC",
        "meta_epoch": "2025-12-05T18:31:59.109024",
        "meta_mean_motion": 14.3377023,
        "meta_eccentricity": 0.0017139,
        "meta_inclination": 98.8303,
        "meta_ra_of_asc_node": 67.844,
        "meta_arg_of_pericenter": 52.9404,
        "meta_mean_anomaly": 71.5075,
        "meta_ephemeris_type": 0,
        "meta_classification_type": "U",
        "meta_norad_cat_id": 30465,
        "meta_element_set_no": 999,
        "meta_rev_at_epoch": 97258,
        "meta_bstar": 0.0035385689,
        "meta_mean_motion_dot": 9.817e-05,
        "meta_mean_motion_ddot": 0,
        "tle_line1": "1 30465U 99025AGC 25339.77221191  .00009817  00000+0  35386-2 0  9996",
        "tle_line2": "2 30465  98.8303  67.8440 0017139  52.9404  71.5075 14.33770230972581"
      },
      "geometry": {
        "type": "Point",
        "coordinates": [
          -94.79671725202681,
          61.61632277110255
        ]
      }
    },
    {
      "type": "Feature",
      "properties": {
        "norad_id": 30466,
        "name": "FENGYUN 1C DEB",
        "group": "fengyun-1c-debris",
        "lat": -43.980564241197435,
        "lon": 28.989547649378313,
        "alt_km": 818.5660938042556,
        "timestamp": "2025-12-06T09:34:17.190314+00:00",
        "meta_object_name": "FENGYUN 1C DEB",
        "meta_object_id": "1999-025AGD",
        "meta_epoch": "2025-12-05T21:06:29.928384",
        "meta_mean_motion": 14.2247537,
        "meta_eccentricity": 0.01169367,
        "meta_inclination": 98.6557,
        "meta_ra_of_asc_node": 20.0263,
        "meta_arg_of_pericenter": 44.1996,
        "meta_mean_anomaly": 134.8316,
        "meta_ephemeris_type": 0,
        "meta_classification_type": "U",
        "meta_norad_cat_id": 30466,
        "meta_element_set_no": 999,
        "meta_rev_at_epoch": 97253,
        "meta_bstar": 0.0023423381,
        "meta_mean_motion_dot": 5.562e-05,
        "meta_mean_motion_ddot": 0,
        "tle_line1": "1 30466U 99025AGD 25339.87951306  .00005562  00000+0  23423-2 0  9998",
        "tle_line2": "2 30466  98.6557  20.0263 0116936  44.1996 134.8316 14.22475370972530"
      },
      "geometry": {
        "type": "Point",
        "coordinates": [
          28.989547649378313,
          -43.980564241197435
        ]
      }
    },
    {
      "type": "Feature",
      "properties": {
        "norad_id": 30467,
        "name": "FENGYUN 1C DEB",
        "group": "fengyun-1c-debris",
        "lat": -48.19872163472223,
        "lon": 178.24413586726533,
        "alt_km": 835.8090738953188,
        "timestamp": "2025-12-06T09:34:17.190324+00:00",
        "meta_object_name": "FENGYUN 1C DEB",
        "meta_object_id": "1999-025AGE",
        "meta_epoch": "2025-12-05T16:07:12.771840",
        "meta_mean_motion": 14.17238197,
        "meta_eccentricity": 0.00653489,
        "meta_inclination": 98.6795,
        "meta_ra_of_asc_node": 7.3707,
        "meta_arg_of_pericenter": 147.4975,
        "meta_mean_anomaly": 332.8219,
        "meta_ephemeris_type": 0,
        "meta_classification_type": "U",
        "meta_norad_cat_id": 30467,
        "meta_element_set_no": 999,
        "meta_rev_at_epoch": 97077,
        "meta_bstar": 0.0016616851,
        "meta_mean_motion_dot": 3.384e-05,
        "meta_mean_motion_ddot": 0,
        "tle_line1": "1 30467U 99025AGE 25339.67167560  .00003384  00000+0  16617-2 0  9995",
        "tle_line2": "2 30467  98.6795   7.3707 0065348 147.4975 332.8219 14.17238197970774"
      },
      "geometry": {
        "type": "Point",
        "coordinates": [
          178.24413586726533,
          -48.19872163472223
        ]
      }
    },
    {
      "type": "Feature",
      "properties": {
        "norad_id": 30468,
        "name": "FENGYUN 1C DEB",
        "group": "fengyun-1c-debris",
        "lat": 76.25476192675957,
        "lon": -78.20275225762201,
        "alt_km": 776.9792627702082,
        "timestamp": "2025-12-06T09:34:17.190335+00:00",
        "meta_object_name": "FENGYUN 1C DEB",
        "meta_object_id": "1999-025AGF",
        "meta_epoch": "2025-12-05T18:27:26.136000",
        "meta_mean_motion": 14.20643156,
        "meta_eccentricity": 0.00724324,
        "meta_inclination": 98.9229,
        "meta_ra_of_asc_node": 61.2006,
        "meta_arg_of_pericenter": 60.2732,
        "meta_mean_anomaly": 60.6646,
        "meta_ephemeris_type": 0,
        "meta_classification_type": "U",
        "meta_norad_cat_id": 30468,
        "meta_element_set_no": 999,
        "meta_rev_at_epoch": 96711,
        "meta_bstar": 0.0027629598,
        "meta_mean_motion_dot": 6.068e-05,
        "meta_mean_motion_ddot": 0,
        "tle_line1": "1 30468U 99025AGF 25339.76905250  .00006068  00000+0  27630-2 0  9991",
        "tle_line2": "2 30468  98.9229  61.2006 0072432  60.2732  60.6646 14.20643156967119"
      },
      "geometry": {
        "type": "Point",
        "coordinates": [
          -78.20275225762201,
          76.25476192675957
        ]
      }
    }
  ]
}